{
    "links": {
        "self": "http://www.neowsapp.com/rest/v1/neo/3584588?api_key=iIulBulltgU6a56xZRHN4H3l9WmuAYTsLGpBGhQ2"
    },
    "id": "3584588",
    "neo_reference_id": "3584588",
    "name": "(2011 UC276)",
    "designation": "2011 UC276",
    "nasa_jpl_url": "http://ssd.jpl.nasa.gov/sbdb.cgi?sstr=3584588",
    "absolute_magnitude_h": 26.4,
    "estimated_diameter": {
        "kilometers": {
            "estimated_diameter_min": 0.0139493823,
            "estimated_diameter_max": 0.0311917671
        },
        "meters": {
            "estimated_diameter_min": 13.9493822934,
            "estimated_diameter_max": 31.1917670523
        },
        "miles": {
            "estimated_diameter_min": 0.0086677416,
            "estimated_diameter_max": 0.0193816595
        },
        "feet": {
            "estimated_diameter_min": 45.7656914036,
            "estimated_diameter_max": 102.3351970157
        }
    },
    "is_potentially_hazardous_asteroid": false,
    "close_approach_data": [
        {
            "close_approach_date": "2011-10-31",
            "close_approach_date_full": "2011-Oct-31 15:37",
            "epoch_date_close_approach": 1320075420000,
            "relative_velocity": {
                "kilometers_per_second": "6.7796498588",
                "kilometers_per_hour": "24406.7394918",
                "miles_per_hour": "15165.3987692243"
            },
            "miss_distance": {
                "astronomical": "0.0514565639",
                "lunar": "20.0166033571",
                "kilometers": "7697792.356958893",
                "miles": "4783186.3713150034"
            },
            "orbiting_body": "Earth"
        }
    ],
    "orbital_data": {
        "orbit_id": "4",
        "orbit_determination_date": "2017-04-06 08:52:07",
        "first_observation_date": "2011-10-31",
        "last_observation_date": "2011-11-01",
        "data_arc_in_days": 1,
        "observations_used": 15,
        "orbit_uncertainty": "9",
        "minimum_orbit_intersection": ".051339",
        "jupiter_tisserand_invariant": "3.651",
        "epoch_osculation": "2455866.5",
        "eccentricity": ".4866268365499786",
        "semi_major_axis": "2.025893562367579",
        "inclination": "6.790329502837964",
        "ascending_node_longitude": "211.2592190171615",
        "orbital_period": "1053.230345565094",
        "perihelion_distance": "1.040039386925677",
        "perihelion_argument": "193.1904581385552",
        "aphelion_distance": "3.01174773780948",
        "perihelion_time": "2455872.188210889619",
        "mean_anomaly": "358.0557378270713",
        "mean_motion": ".3418055713224324",
        "equinox": "J2000",
        "orbit_class": {
            "orbit_class_type": "AMO",
            "orbit_class_description": "Near-Earth asteroid orbits similar to that of 1221 Amor",
            "orbit_class_range": "1.017 AU < q (perihelion) < 1.3 AU"
        }
    },
    "is_sentry_object": false
}